{"type": "FeatureCollection", "features": [ {"type": "Feature", "properties": {"norad_id": 44476, "name": "INTELSAT 39 (IS-39)", "group": "intelsat", "lat": -0.00715388714020027, "lon": 2.0785053190745164, "alt_km": 35789.52313215704, "timestamp": "2025-12-26T13:39:18.629010+00:00", "meta": {"OBJECT_NAME": "INTELSAT 39 (IS-39)", "OBJECT_ID": "2019-049B", "EPOCH": "2025-12-26T02:18:38.819232", "MEAN_MOTION": 1.00272077, "ECCENTRICITY": 9.315e-05, "INCLINATION": 0.0019, "RA_OF_ASC_NODE": 36.1159, "ARG_OF_PERICENTER": 121.2082, "MEAN_ANOMALY": 34.1336, "EPHEMERIS_TYPE": 0, "CLASSIFICATION_TYPE": "U", "NORAD_CAT_ID": 44476, "ELEMENT_SET_NO": 999, "REV_AT_EPOCH": 2339, "BSTAR": 0, "MEAN_MOTION_DOT": 5.5e-07, "MEAN_MOTION_DDOT": 0}, "tle": {"line1": "1 44476U 19049B   25360.09628263  .00000055  00000+0  00000+0 0  9998", "line2": "2 44476   0.0019  36.1159 0000931 121.2082  34.1336  1.00272077 23394"}}, "geometry": {"type": "Point", "coordinates": [2.0785053190745164, -0.00715388714020027]}}, {"type": "Feature", "properties": {"norad_id": 46114, "name": "GALAXY 30 (G-30)", "group": "intelsat", "lat": 0.007487442455192747, "lon": 175.10326244477736, "alt_km": 35788.0521026525, "timestamp": "2025-12-26T13:39:18.629022+00:00", "meta": {"OBJECT_NAME": "GALAXY 30 (G-30)", "OBJECT_ID": "2020-056C", "EPOCH": "2025-12-26T05:46:42.761280", "MEAN_MOTION": 1.0027102, "ECCENTRICITY": 0.00023411, "INCLINATION": 0.0016, "RA_OF_ASC_NODE": 22.3625, "ARG_OF_PERICENTER": 253.0732, "MEAN_ANOMALY": 141.2291, "EPHEMERIS_TYPE": 0, "CLASSIFICATION_TYPE": "U", "NORAD_CAT_ID": 46114, "ELEMENT_SET_NO": 999, "REV_AT_EPOCH": 1955, "BSTAR": 0, "MEAN_MOTION_DOT": 5.9e-07, "MEAN_MOTION_DDOT": 0}, "tle": {"line1": "1 46114U 20056C   25360.24077270  .00000059  00000+0  00000+0 0  9996", "line2": "2 46114   0.0016  22.3625 0002341 253.0732 141.2291  1.00271020 19550"}}, "geometry": {"type": "Point", "coordinates": [175.10326244477736, 0.007487442455192747]}}, {"type": "Feature", "properties": {"norad_id": 54026, "name": "GALAXY 33 (G-33)", "group": "intelsat", "lat": -0.0016455823406304358, "lon": 167.12772622781978, "alt_km": 35786.78255000561, "timestamp": "2025-12-26T13:39:18.629033+00:00", "meta": {"OBJECT_NAME": "GALAXY 33 (G-33)", "OBJECT_ID": "2022-128A", "EPOCH": "2025-12-24T04:31:51.326400", "MEAN_MOTION": 1.00272122, "ECCENTRICITY": 0.0001643, "INCLINATION": 0.0126, "RA_OF_ASC_NODE": 315.9231, "ARG_OF_PERICENTER": 309.5058, "MEAN_ANOMALY": 122.5078, "EPHEMERIS_TYPE": 0, "CLASSIFICATION_TYPE": "U", "NORAD_CAT_ID": 54026, "ELEMENT_SET_NO": 999, "REV_AT_EPOCH": 1198, "BSTAR": 0, "MEAN_MOTION_DOT": 1e-06, "MEAN_MOTION_DDOT": 0}, "tle": {"line1": "1 54026U 22128A   25358.18878850  .00000100  00000+0  00000+0 0  9999", "line2": "2 54026   0.0126 315.9231 0001643 309.5058 122.5078  1.00272122 11987"}}, "geometry": {"type": "Point", "coordinates": [167.12772622781978, -0.0016455823406304358]}}, {"type": "Feature", "properties": {"norad_id": 54027, "name": "GALAXY 34 (G-34)", "group": "intelsat", "lat": 0.01446863084839487, "lon": 171.15464033762458, "alt_km": 35787.4832591448, "timestamp": "2025-12-26T13:39:18.629045+00:00", "meta": {"OBJECT_NAME": "GALAXY 34 (G-34)", "OBJECT_ID": "2022-128B", "EPOCH": "2025-12-26T05:44:45.836160", "MEAN_MOTION": 1.00270295, "ECCENTRICITY": 0.0001789, "INCLINATION": 0.0226, "RA_OF_ASC_NODE": 12.0024, "ARG_OF_PERICENTER": 256.7619, "MEAN_ANOMALY": 143.4581, "EPHEMERIS_TYPE": 0, "CLASSIFICATION_TYPE": "U", "NORAD_CAT_ID": 54027, "ELEMENT_SET_NO": 999, "REV_AT_EPOCH": 1217, "BSTAR": 0, "MEAN_MOTION_DOT": 0, "MEAN_MOTION_DDOT": 0}, "tle": {"line1": "1 54027U 22128B   25360.23941940  .00000000  00000+0  00000+0 0  9999", "line2": "2 54027   0.0226  12.0024 0001789 256.7619 143.4581  1.00270295 12173"}}, "geometry": {"type": "Point", "coordinates": [171.15464033762458, 0.01446863084839487]}}, {"type": "Feature", "properties": {"norad_id": 54243, "name": "GALAXY 31 (G-31)", "group": "intelsat", "lat": -0.0010956063094769359, "lon": 179.10994200256494, "alt_km": 35788.30552914285, "timestamp": "2025-12-26T13:39:18.629057+00:00", "meta": {"OBJECT_NAME": "GALAXY 31 (G-31)", "OBJECT_ID": "2022-153A", "EPOCH": "2025-12-26T05:50:54.375360", "MEAN_MOTION": 1.00271149, "ECCENTRICITY": 0.00017637, "INCLINATION": 0.0129, "RA_OF_ASC_NODE": 186.4349, "ARG_OF_PERICENTER": 98.7851, "MEAN_ANOMALY": 136.4956, "EPHEMERIS_TYPE": 0, "CLASSIFICATION_TYPE": "U", "NORAD_CAT_ID": 54243, "ELEMENT_SET_NO": 999, "REV_AT_EPOCH": 539, "BSTAR": 0, "MEAN_MOTION_DOT": 3.5e-07, "MEAN_MOTION_DDOT": 0}, "tle": {"line1": "1 54243U 22153A   25360.24368490  .00000035  00000+0  00000+0 0  9999", "line2": "2 54243   0.0129 186.4349 0001763  98.7851 136.4956  1.00271149  5398"}}, "geometry": {"type": "Point", "coordinates": [179.10994200256494, -0.0010956063094769359]}}, {"type": "Feature", "properties": {"norad_id": 54244, "name": "GALAXY 32 (G-32)", "group": "intelsat", "lat": -0.0064447388073497645, "lon": -150.88304845276474, "alt_km": 35788.39191063005, "timestamp": "2025-12-26T13:39:18.629069+00:00", "meta": {"OBJECT_NAME": "GALAXY 32 (G-32)", "OBJECT_ID": "2022-153B", "EPOCH": "2025-12-24T22:56:22.028928", "MEAN_MOTION": 1.00272509, "ECCENTRICITY": 0.0001992, "INCLINATION": 0.0091, "RA_OF_ASC_NODE": 20.8495, "ARG_OF_PERICENTER": 295.2988, "MEAN_ANOMALY": 30.6679, "EPHEMERIS_TYPE": 0, "CLASSIFICATION_TYPE": "U", "NORAD_CAT_ID": 54244, "ELEMENT_SET_NO": 999, "REV_AT_EPOCH": 1139, "BSTAR": 0, "MEAN_MOTION_DOT": -1.53e-06, "MEAN_MOTION_DDOT": 0}, "tle": {"line1": "1 54244U 22153B   25358.95581052 -.00000153  00000+0  00000+0 0  9998", "line2": "2 54244   0.0091  20.8495 0001992 295.2988  30.6679  1.00272509 11394"}}, "geometry": {"type": "Point", "coordinates": [-150.88304845276474, -0.0064447388073497645]}}, {"type": "Feature", "properties": {"norad_id": 54741, "name": "GALAXY 35 (G-35)", "group": "intelsat", "lat": -0.01180909422681063, "lon": -152.98823747257035, "alt_km": 35782.891468447604, "timestamp": "2025-12-26T13:39:18.629081+00:00", "meta": {"OBJECT_NAME": "GALAXY 35 (G-35)", "OBJECT_ID": "2022-170A", "EPOCH": "2025-12-26T06:05:10.563072", "MEAN_MOTION": 1.00270831, "ECCENTRICITY": 0.00023837, "INCLINATION": 0.0213, "RA_OF_ASC_NODE": 259.191, "ARG_OF_PERICENTER": 17.6851, "MEAN_ANOMALY": 176.3252, "EPHEMERIS_TYPE": 0, "CLASSIFICATION_TYPE": "U", "NORAD_CAT_ID": 54741, "ELEMENT_SET_NO": 999, "REV_AT_EPOCH": 1116, "BSTAR": 0, "MEAN_MOTION_DOT": -1.4e-06, "MEAN_MOTION_DDOT": 0}, "tle": {"line1": "1 54741U 22170A   25360.25359448 -.00000140  00000+0  00000+0 0  9993", "line2": "2 54741   0.0213 259.1910 0002383  17.6851 176.3252  1.00270831 11167"}}, "geometry": {"type": "Point", "coordinates": [-152.98823747257035, -0.01180909422681063]}}, {"type": "Feature", "properties": {"norad_id": 54742, "name": "GALAXY 36 (G-36)", "group": "intelsat", "lat": 0.009320166041908278, "lon": -148.86172871939226, "alt_km": 35787.049990366686, "timestamp": "2025-12-26T13:39:18.629092+00:00", "meta": {"OBJECT_NAME": "GALAXY 36 (G-36)", "OBJECT_ID": "2022-170B", "EPOCH": "2025-12-26T06:07:06.911904", "MEAN_MOTION": 1.00271848, "ECCENTRICITY": 4.125e-05, "INCLINATION": 0.0203, "RA_OF_ASC_NODE": 100.3613, "ARG_OF_PERICENTER": 234.8581, "MEAN_ANOMALY": 122.5715, "EPHEMERIS_TYPE": 0, "CLASSIFICATION_TYPE": "U", "NORAD_CAT_ID": 54742, "ELEMENT_SET_NO": 999, "REV_AT_EPOCH": 1104, "BSTAR": 0, "MEAN_MOTION_DOT": -1.63e-06, "MEAN_MOTION_DDOT": 0}, "tle": {"line1": "1 54742U 22170B   25360.25494111 -.00000163  00000+0  00000+0 0  9996", "line2": "2 54742   0.0203 100.3613 0000412 234.8581 122.5715  1.00271848 11041"}}, "geometry": {"type": "Point", "coordinates": [-148.86172871939226, 0.009320166041908278]}}, {"type": "Feature", "properties": {"norad_id": 57493, "name": "GALAXY 37 (G-37)", "group": "intelsat", "lat": 0.01596457231931987, "lon": 173.10139880502825, "alt_km": 35788.45153304461, "timestamp": "2025-12-26T13:39:18.629104+00:00", "meta": {"OBJECT_NAME": "GALAXY 37 (G-37)", "OBJECT_ID": "2023-112A", "EPOCH": "2025-12-26T05:45:44.958816", "MEAN_MOTION": 1.00271855, "ECCENTRICITY": 0.00021519, "INCLINATION": 0.011, "RA_OF_ASC_NODE": 39.4451, "ARG_OF_PERICENTER": 239.0541, "MEAN_ANOMALY": 135.9186, "EPHEMERIS_TYPE": 0, "CLASSIFICATION_TYPE": "U", "NORAD_CAT_ID": 57493, "ELEMENT_SET_NO": 999, "REV_AT_EPOCH": 880, "BSTAR": 0, "MEAN_MOTION_DOT": 7e-07, "MEAN_MOTION_DDOT": 0}, "tle": {"line1": "1 57493U 23112A   25360.24010369  .00000070  00000+0  00000+0 0  9993", "line2": "2 57493   0.0110  39.4451 0002151 239.0541 135.9186  1.00271855  8809"}}, "geometry": {"type": "Point", "coordinates": [173.10139880502825, 0.01596457231931987]}}]}